[{"OBJECT_NAME":"ONEWEB-0656","OBJECT_ID":"2023-029X","EPOCH":"2026-05-24T19:05:37.510656","MEAN_MOTION":13.20771317,"ECCENTRICITY":0.0002326,"INCLINATION":87.9178,"RA_OF_ASC_NODE":279.0929,"ARG_OF_PERICENTER":102.0931,"MEAN_ANOMALY":258.0463,"EPHEMERIS_TYPE":0,"CLASSIFICATION_TYPE":"U","NORAD_CAT_ID":55817,"ELEMENT_SET_NO":999,"REV_AT_EPOCH":15806,"BSTAR":2.3372000000000003e-05,"MEAN_MOTION_DOT":2.2e-07,"MEAN_MOTION_DDOT":0.0},{"OBJECT_NAME":"ONEWEB-0657","OBJECT_ID":"2023-029Y","EPOCH":"2026-05-24T22:46:22.080288","MEAN_MOTION":13.19726049,"ECCENTRICITY":0.0002041,"INCLINATION":87.915,"RA_OF_ASC_NODE":309.6075,"ARG_OF_PERICENTER":113.9523,"MEAN_ANOMALY":246.1824,"EPHEMERIS_TYPE":0,"CLASSIFICATION_TYPE":"U","NORAD_CAT_ID":55818,"ELEMENT_SET_NO":999,"REV_AT_EPOCH":15584,"BSTAR":0.00015485,"MEAN_MOTION_DOT":7.5e-07,"MEAN_MOTION_DDOT":0.0},{"OBJECT_NAME":"ONEWEB-0658","OBJECT_ID":"2023-029Z","EPOCH":"2026-05-24T22:39:32.556384","MEAN_MOTION":13.19726219,"ECCENTRICITY":0.0001382,"INCLINATION":87.9158,"RA_OF_ASC_NODE":309.582,"ARG_OF_PERICENTER":91.4211,"MEAN_ANOMALY":268.708,"EPHEMERIS_TYPE":0,"CLASSIFICATION_TYPE":"U","NORAD_CAT_ID":55819,"ELEMENT_SET_NO":999,"REV_AT_EPOCH":15585,"BSTAR":0.00020562,"MEAN_MOTION_DOT":9.5e-07,"MEAN_MOTION_DDOT":0.0},{"OBJECT_NAME":"ONEWEB-0660","OBJECT_ID":"2023-029AA","EPOCH":"2026-05-24T21:51:26.808480","MEAN_MOTION":13.14502097,"ECCENTRICITY":0.0001759,"INCLINATION":87.8947,"RA_OF_ASC_NODE":294.3384,"ARG_OF_PERICENTER":86.6494,"MEAN_ANOMALY":273.4837,"EPHEMERIS_TYPE":0,"CLASSIFICATION_TYPE":"U","NORAD_CAT_ID":55820,"ELEMENT_SET_NO":999,"REV_AT_EPOCH":15634,"BSTAR":-0.00040285,"MEAN_MOTION_DOT":-1.37e-06,"MEAN_MOTION_DDOT":0.0},{"OBJECT_NAME":"ONEWEB-0661","OBJECT_ID":"2023-029AB","EPOCH":"2026-05-24T22:41:41.300160","MEAN_MOTION":13.14501433,"ECCENTRICITY":0.0001888,"INCLINATION":87.8932,"RA_OF_ASC_NODE":294.3801,"ARG_OF_PERICENTER":87.665,"MEAN_ANOMALY":272.4696,"EPHEMERIS_TYPE":0,"CLASSIFICATION_TYPE":"U","NORAD_CAT_ID":55821,"ELEMENT_SET_NO":999,"REV_AT_EPOCH":15633,"BSTAR":0.00042186000000000003,"MEAN_MOTION_DOT":1.69e-06,"MEAN_MOTION_DDOT":0.0},{"OBJECT_NAME":"ONEWEB-0662","OBJECT_ID":"2023-029AC","EPOCH":"2026-05-24T21:42:18.056160","MEAN_MOTION":13.14501257,"ECCENTRICITY":0.0001758,"INCLINATION":87.8931,"RA_OF_ASC_NODE":294.3947,"ARG_OF_PERICENTER":86.7298,"MEAN_ANOMALY":273.4033,"EPHEMERIS_TYPE":0,"CLASSIFICATION_TYPE":"U","NORAD_CAT_ID":55822,"ELEMENT_SET_NO":999,"REV_AT_EPOCH":15637,"BSTAR":-0.00064537,"MEAN_MOTION_DOT":-2.26e-06,"MEAN_MOTION_DDOT":0.0},{"OBJECT_NAME":"ONEWEB-0663","OBJECT_ID":"2023-029AD","EPOCH":"2026-05-24T21:45:40.672800","MEAN_MOTION":13.20867181,"ECCENTRICITY":0.0001576,"INCLINATION":87.9179,"RA_OF_ASC_NODE":279.1432,"ARG_OF_PERICENTER":88.2082,"MEAN_ANOMALY":271.9232,"EPHEMERIS_TYPE":0,"CLASSIFICATION_TYPE":"U","NORAD_CAT_ID":55823,"ELEMENT_SET_NO":999,"REV_AT_EPOCH":15807,"BSTAR":-0.00017475,"MEAN_MOTION_DOT":-5.8e-07,"MEAN_MOTION_DDOT":0.0},{"OBJECT_NAME":"ONEWEB-0664","OBJECT_ID":"2023-029AE","EPOCH":"2026-05-24T15:08:00.820320","MEAN_MOTION":13.20771288,"ECCENTRICITY":0.0002199,"INCLINATION":87.9161,"RA_OF_ASC_NODE":279.1817,"ARG_OF_PERICENTER":88.3996,"MEAN_ANOMALY":271.7389,"EPHEMERIS_TYPE":0,"CLASSIFICATION_TYPE":"U","NORAD_CAT_ID":55824,"ELEMENT_SET_NO":999,"REV_AT_EPOCH":15803,"BSTAR":0.00028877000000000004,"MEAN_MOTION_DOT":1.3e-06,"MEAN_MOTION_DDOT":0.0},{"OBJECT_NAME":"ONEWEB-0665","OBJECT_ID":"2023-029AF","EPOCH":"2026-05-24T22:37:07.711104","MEAN_MOTION":13.14501425,"ECCENTRICITY":0.0001664,"INCLINATION":87.8934,"RA_OF_ASC_NODE":294.3614,"ARG_OF_PERICENTER":88.0513,"MEAN_ANOMALY":272.0807,"EPHEMERIS_TYPE":0,"CLASSIFICATION_TYPE":"U","NORAD_CAT_ID":55825,"ELEMENT_SET_NO":999,"REV_AT_EPOCH":15635,"BSTAR":0.0006841000000000001,"MEAN_MOTION_DOT":2.66e-06,"MEAN_MOTION_DDOT":0.0},{"OBJECT_NAME":"ONEWEB-0666","OBJECT_ID":"2023-029AG","EPOCH":"2026-05-24T22:14:39.967008","MEAN_MOTION":13.20772882,"ECCENTRICITY":0.000208,"INCLINATION":87.9163,"RA_OF_ASC_NODE":279.1122,"ARG_OF_PERICENTER":119.2986,"MEAN_ANOMALY":240.8356,"EPHEMERIS_TYPE":0,"CLASSIFICATION_TYPE":"U","NORAD_CAT_ID":55826,"ELEMENT_SET_NO":999,"REV_AT_EPOCH":15808,"BSTAR":-0.0013966999999999999,"MEAN_MOTION_DOT":-5.55e-06,"MEAN_MOTION_DDOT":0.0},{"OBJECT_NAME":"ONEWEB-0667","OBJECT_ID":"2023-029AH","EPOCH":"2026-05-24T22:07:26.215680","MEAN_MOTION":13.20768894,"ECCENTRICITY":0.0001868,"INCLINATION":87.9181,"RA_OF_ASC_NODE":279.0679,"ARG_OF_PERICENTER":93.5339,"MEAN_ANOMALY":266.6008,"EPHEMERIS_TYPE":0,"CLASSIFICATION_TYPE":"U","NORAD_CAT_ID":55827,"ELEMENT_SET_NO":999,"REV_AT_EPOCH":15807,"BSTAR":-0.00022979,"MEAN_MOTION_DOT":-8e-07,"MEAN_MOTION_DDOT":0.0},{"OBJECT_NAME":"ONEWEB-0669","OBJECT_ID":"2023-029AJ","EPOCH":"2026-05-24T22:00:08.575488","MEAN_MOTION":13.20770142,"ECCENTRICITY":0.0002446,"INCLINATION":87.9171,"RA_OF_ASC_NODE":279.0818,"ARG_OF_PERICENTER":98.0443,"MEAN_ANOMALY":262.0968,"EPHEMERIS_TYPE":0,"CLASSIFICATION_TYPE":"U","NORAD_CAT_ID":55828,"ELEMENT_SET_NO":999,"REV_AT_EPOCH":15807,"BSTAR":-0.00013317,"MEAN_MOTION_DOT":-4.1e-07,"MEAN_MOTION_DDOT":0.0},{"OBJECT_NAME":"ONEWEB-0670","OBJECT_ID":"2023-029AK","EPOCH":"2026-05-24T22:05:08.953728","MEAN_MOTION":13.14501435,"ECCENTRICITY":0.0002028,"INCLINATION":87.893,"RA_OF_ASC_NODE":294.3835,"ARG_OF_PERICENTER":86.5174,"MEAN_ANOMALY":273.6188,"EPHEMERIS_TYPE":0,"CLASSIFICATION_TYPE":"U","NORAD_CAT_ID":55829,"ELEMENT_SET_NO":999,"REV_AT_EPOCH":15637,"BSTAR":-0.00014058,"MEAN_MOTION_DOT":-3.9e-07,"MEAN_MOTION_DDOT":0.0},{"OBJECT_NAME":"ONEWEB-0671","OBJECT_ID":"2023-029AL","EPOCH":"2026-05-24T22:32:42.134784","MEAN_MOTION":13.19726419,"ECCENTRICITY":0.0001792,"INCLINATION":87.915,"RA_OF_ASC_NODE":309.6105,"ARG_OF_PERICENTER":87.9807,"MEAN_ANOMALY":272.1531,"EPHEMERIS_TYPE":0,"CLASSIFICATION_TYPE":"U","NORAD_CAT_ID":55830,"ELEMENT_SET_NO":999,"REV_AT_EPOCH":15583,"BSTAR":5.6494000000000005e-05,"MEAN_MOTION_DOT":3.6e-07,"MEAN_MOTION_DDOT":0.0},{"OBJECT_NAME":"ONEWEB-0672","OBJECT_ID":"2023-029AM","EPOCH":"2026-05-24T21:52:51.957408","MEAN_MOTION":13.20770887,"ECCENTRICITY":0.0002075,"INCLINATION":87.9175,"RA_OF_ASC_NODE":279.0755,"ARG_OF_PERICENTER":105.1636,"MEAN_ANOMALY":254.9727,"EPHEMERIS_TYPE":0,"CLASSIFICATION_TYPE":"U","NORAD_CAT_ID":55831,"ELEMENT_SET_NO":999,"REV_AT_EPOCH":15807,"BSTAR":-7.5618e-05,"MEAN_MOTION_DOT":-1.8e-07,"MEAN_MOTION_DDOT":0.0},{"OBJECT_NAME":"ONEWEB-0673","OBJECT_ID":"2023-029AN","EPOCH":"2026-05-24T21:59:43.984320","MEAN_MOTION":13.19724834,"ECCENTRICITY":0.0001902,"INCLINATION":87.9166,"RA_OF_ASC_NODE":309.6039,"ARG_OF_PERICENTER":100.7676,"MEAN_ANOMALY":259.3671,"EPHEMERIS_TYPE":0,"CLASSIFICATION_TYPE":"U","NORAD_CAT_ID":55832,"ELEMENT_SET_NO":999,"REV_AT_EPOCH":15583,"BSTAR":-0.00023017000000000003,"MEAN_MOTION_DOT":-7.9e-07,"MEAN_MOTION_DDOT":0.0}]