ONEWEB-0656             
1 55817U 23029X   26144.79557304  .00000022  00000+0  23372-4 0  9993
2 55817  87.9178 279.0929 0002326 102.0931 258.0463 13.20771317158065
ONEWEB-0657             
1 55818U 23029Y   26144.94886667  .00000075  00000+0  15485-3 0  9991
2 55818  87.9150 309.6075 0002041 113.9523 246.1824 13.19726049155842
ONEWEB-0658             
1 55819U 23029Z   26144.94412681  .00000095  00000+0  20562-3 0  9997
2 55819  87.9158 309.5820 0001382  91.4211 268.7080 13.19726219155853
ONEWEB-0660             
1 55820U 23029AA  26144.91072695 -.00000137  00000+0 -40285-3 0  9996
2 55820  87.8947 294.3384 0001759  86.6494 273.4837 13.14502097156342
ONEWEB-0661             
1 55821U 23029AB  26144.94561690  .00000169  00000+0  42186-3 0  9993
2 55821  87.8932 294.3801 0001888  87.6650 272.4696 13.14501433156333
ONEWEB-0662             
1 55822U 23029AC  26144.90437565 -.00000226  00000+0 -64537-3 0  9993
2 55822  87.8931 294.3947 0001758  86.7298 273.4033 13.14501257156372
ONEWEB-0663             
1 55823U 23029AD  26144.90672075 -.00000058  00000+0 -17475-3 0  9993
2 55823  87.9179 279.1432 0001576  88.2082 271.9232 13.20867181158075
ONEWEB-0664             
1 55824U 23029AE  26144.63056505  .00000130  00000+0  28877-3 0  9995
2 55824  87.9161 279.1817 0002199  88.3996 271.7389 13.20771288158030
ONEWEB-0665             
1 55825U 23029AF  26144.94245036  .00000266  00000+0  68410-3 0  9996
2 55825  87.8934 294.3614 0001664  88.0513 272.0807 13.14501425156359
ONEWEB-0666             
1 55826U 23029AG  26144.92685147 -.00000555  00000+0 -13967-2 0  9995
2 55826  87.9163 279.1122 0002080 119.2986 240.8356 13.20772882158082
ONEWEB-0667             
1 55827U 23029AH  26144.92183120 -.00000080  00000+0 -22979-3 0  9997
2 55827  87.9181 279.0679 0001868  93.5339 266.6008 13.20768894158075
ONEWEB-0669             
1 55828U 23029AJ  26144.91676592 -.00000041  00000+0 -13317-3 0  9990
2 55828  87.9171 279.0818 0002446  98.0443 262.0968 13.20770142158073
ONEWEB-0670             
1 55829U 23029AK  26144.92024252 -.00000039  00000+0 -14058-3 0  9992
2 55829  87.8930 294.3835 0002028  86.5174 273.6188 13.14501435156377
ONEWEB-0671             
1 55830U 23029AL  26144.93937656  .00000036  00000+0  56494-4 0  9992
2 55830  87.9150 309.6105 0001792  87.9807 272.1531 13.19726419155831
ONEWEB-0672             
1 55831U 23029AM  26144.91171247 -.00000018  00000+0 -75618-4 0  9998
2 55831  87.9175 279.0755 0002075 105.1636 254.9727 13.20770887158072
ONEWEB-0673             
1 55832U 23029AN  26144.91648130 -.00000079  00000+0 -23017-3 0  9991
2 55832  87.9166 309.6039 0001902 100.7676 259.3671 13.19724834155838
